[{"OBJECT_NAME":"YAOGAN-30 03C","OBJECT_ID":"2017-075C","EPOCH":"2026-03-09T16:55:34.578048","MEAN_MOTION":15.02171938,"ECCENTRICITY":0.00026669,"INCLINATION":34.9942,"RA_OF_ASC_NODE":156.283,"ARG_OF_PERICENTER":259.4663,"MEAN_ANOMALY":100.5744,"EPHEMERIS_TYPE":0,"CLASSIFICATION_TYPE":"U","NORAD_CAT_ID":43030,"ELEMENT_SET_NO":999,"REV_AT_EPOCH":45245,"BSTAR":0.00030362499,"MEAN_MOTION_DOT":4.051e-5,"MEAN_MOTION_DDOT":0},{"OBJECT_NAME":"STARLINK-5910","OBJECT_ID":"2023-042Q","EPOCH":"2026-03-09T22:55:07.408704","MEAN_MOTION":15.02514873,"ECCENTRICITY":0.00013502,"INCLINATION":43.004,"RA_OF_ASC_NODE":54.3772,"ARG_OF_PERICENTER":276.301,"MEAN_ANOMALY":83.7679,"EPHEMERIS_TYPE":0,"CLASSIFICATION_TYPE":"U","NORAD_CAT_ID":56000,"ELEMENT_SET_NO":999,"REV_AT_EPOCH":16295,"BSTAR":-0.00016727144,"MEAN_MOTION_DOT":-2.461e-5,"MEAN_MOTION_DDOT":0}]
